[{"OBJECT_NAME":"MAKERSAT 0","OBJECT_ID":"2017-073D","EPOCH":"2026-03-09T15:16:53.554944","MEAN_MOTION":15.27797199,"ECCENTRICITY":0.0115258,"INCLINATION":97.4777,"RA_OF_ASC_NODE":310.6155,"ARG_OF_PERICENTER":266.0743,"MEAN_ANOMALY":92.7313,"EPHEMERIS_TYPE":0,"CLASSIFICATION_TYPE":"U","NORAD_CAT_ID":43016,"ELEMENT_SET_NO":999,"REV_AT_EPOCH":45124,"BSTAR":0.0007159,"MEAN_MOTION_DOT":0.00023659,"MEAN_MOTION_DDOT":0},{"OBJECT_NAME":"STARLINK-3290","OBJECT_ID":"2022-001AB","EPOCH":"2026-03-09T13:05:25.242720","MEAN_MOTION":15.08839033,"ECCENTRICITY":0.00012841,"INCLINATION":53.2186,"RA_OF_ASC_NODE":169.6628,"ARG_OF_PERICENTER":77.7171,"MEAN_ANOMALY":282.3965,"EPHEMERIS_TYPE":0,"CLASSIFICATION_TYPE":"U","NORAD_CAT_ID":50828,"ELEMENT_SET_NO":999,"REV_AT_EPOCH":23023,"BSTAR":-4.186895e-6,"MEAN_MOTION_DOT":-3.55e-6,"MEAN_MOTION_DDOT":0}]
